STARLINK-2600
1 18387C 21038AL  21326.13317035  .00009027  00000-0  60468-3 0  3260
2 18387  53.0539 188.1465 0002149  69.0264 145.9612 15.06398817    10
